{"fetched_at":"2026-07-06T08:47:14.927Z","source":"https://celestrak.org/NORAD/elements/gp.php?NAME=PLEIADES&FORMAT=JSON","constellation":"pleiades","records":[{"OBJECT_NAME":"PLEIADES 1A","OBJECT_ID":"2011-076F","EPOCH":"2026-07-05T16:00:29.733984","CLASSIFICATION_TYPE":"U","MEAN_MOTION":14.58543896,"ECCENTRICITY":0.00017715,"INCLINATION":98.1969,"RA_OF_ASC_NODE":261.5216,"ARG_OF_PERICENTER":84.8047,"MEAN_ANOMALY":75.4487,"EPHEMERIS_TYPE":0,"NORAD_CAT_ID":38012,"ELEMENT_SET_NO":999,"REV_AT_EPOCH":77468,"BSTAR":0.00013983832,"MEAN_MOTION_DOT":0.00000604,"MEAN_MOTION_DDOT":0},{"OBJECT_NAME":"PLEIADES 1B","OBJECT_ID":"2012-068A","EPOCH":"2026-07-05T14:26:39.864192","CLASSIFICATION_TYPE":"U","MEAN_MOTION":14.58574154,"ECCENTRICITY":0.00016783,"INCLINATION":98.1939,"RA_OF_ASC_NODE":261.4002,"ARG_OF_PERICENTER":81.7729,"MEAN_ANOMALY":278.366,"EPHEMERIS_TYPE":0,"NORAD_CAT_ID":39019,"ELEMENT_SET_NO":999,"REV_AT_EPOCH":72353,"BSTAR":0.00019035896,"MEAN_MOTION_DOT":0.0000084,"MEAN_MOTION_DDOT":0}]}
