PLEIADES 1A             
1 38012U 11076F   26186.66701081  .00000604  00000+0  13984-3 0  9998
2 38012  98.1969 261.5216 0001771  84.8047  75.4487 14.58543896774688
PLEIADES 1B             
1 39019U 12068A   26186.60185028  .00000840  00000+0  19036-3 0  9995
2 39019  98.1939 261.4002 0001678  81.7729 278.3660 14.58574154723530
